STARLINK - 2019-029BC              
1 44285U 19029BC  19146.90880609  .00002268  00000-0  60467-4 0  9990
2 44285  53.0007 161.9973 0006110 275.1661 212.4227 15.42751057  1606